LEMUR-2-GREENBERG       
1 42837U 17042N   26068.46200528  .00019778  00000+0  72539-3 0  9997
2 42837  97.3781 249.8007 0009157   4.0119 356.1192 15.27971352473146
STARLINK-32439          
1 61665U 24193E   26068.43908976 -.00000356  00000+0  11419-6 0  9997
2 61665  53.1591  92.4983 0001189 105.7947 254.3185 15.30197118 76486
