[{"OBJECT_NAME":"LEMUR-2-GREENBERG","OBJECT_ID":"2017-042N","EPOCH":"2026-03-09T11:05:17.256192","MEAN_MOTION":15.27971352,"ECCENTRICITY":0.00091572,"INCLINATION":97.3781,"RA_OF_ASC_NODE":249.8007,"ARG_OF_PERICENTER":4.0119,"MEAN_ANOMALY":356.1192,"EPHEMERIS_TYPE":0,"CLASSIFICATION_TYPE":"U","NORAD_CAT_ID":42837,"ELEMENT_SET_NO":999,"REV_AT_EPOCH":47314,"BSTAR":0.00072539172,"MEAN_MOTION_DOT":0.00019778,"MEAN_MOTION_DDOT":0},{"OBJECT_NAME":"STARLINK-32439","OBJECT_ID":"2024-193E","EPOCH":"2026-03-09T10:32:17.355264","MEAN_MOTION":15.30197118,"ECCENTRICITY":0.00011892,"INCLINATION":53.1591,"RA_OF_ASC_NODE":92.4983,"ARG_OF_PERICENTER":105.7947,"MEAN_ANOMALY":254.3185,"EPHEMERIS_TYPE":0,"CLASSIFICATION_TYPE":"U","NORAD_CAT_ID":61665,"ELEMENT_SET_NO":999,"REV_AT_EPOCH":7648,"BSTAR":1.14186e-7,"MEAN_MOTION_DOT":-3.56e-6,"MEAN_MOTION_DDOT":0}]
